{
  "type": "FeatureCollection",
  "features": [
    {
      "type": "Feature",
      "properties": {
        "norad_id": 66583,
        "name": "STARLINK-35941",
        "group": "last-30-days",
        "lat": -22.093995094572637,
        "lon": -16.971808181539046,
        "alt_km": 416.56664417328466,
        "timestamp": "2025-12-09T23:33:22.608952+00:00",
        "meta_object_name": "STARLINK-35941",
        "meta_object_id": "2025-268AC",
        "meta_epoch": "2025-12-09T14:00:01.999872",
        "meta_mean_motion": 15.50640345,
        "meta_eccentricity": 0.00020103,
        "meta_inclination": 43.0004,
        "meta_ra_of_asc_node": 139.533,
        "meta_arg_of_pericenter": 267.928,
        "meta_mean_anomaly": 240.2967,
        "meta_ephemeris_type": 0,
        "meta_classification_type": "U",
        "meta_norad_cat_id": 66583,
        "meta_element_set_no": 999,
        "meta_rev_at_epoch": 416,
        "meta_bstar": -0.0024708619,
        "meta_mean_motion_dot": -0.00143001,
        "meta_mean_motion_ddot": 0,
        "tle_line1": "1 66583U 25268AC  25343.58335648 -.00143001  00000+0 -24709-2 0  9994",
        "tle_line2": "2 66583  43.0004 139.5330 0002010 267.9280 240.2967 15.50640345  4166"
      },
      "geometry": {
        "type": "Point",
        "coordinates": [
          -16.971808181539046,
          -22.093995094572637
        ]
      }
    },
    {
      "type": "Feature",
      "properties": {
        "norad_id": 66584,
        "name": "STARLINK-35939",
        "group": "last-30-days",
        "lat": -23.262619290164665,
        "lon": -15.327943614831591,
        "alt_km": 416.63930012188575,
        "timestamp": "2025-12-09T23:33:22.608968+00:00",
        "meta_object_name": "STARLINK-35939",
        "meta_object_id": "2025-268AD",
        "meta_epoch": "2025-12-09T14:00:01.999872",
        "meta_mean_motion": 15.5064767,
        "meta_eccentricity": 0.00019158,
        "meta_inclination": 43.0003,
        "meta_ra_of_asc_node": 139.5285,
        "meta_arg_of_pericenter": 266.3181,
        "meta_mean_anomaly": 243.8222,
        "meta_ephemeris_type": 0,
        "meta_classification_type": "U",
        "meta_norad_cat_id": 66584,
        "meta_element_set_no": 999,
        "meta_rev_at_epoch": 416,
        "meta_bstar": -0.0027166754,
        "meta_mean_motion_dot": -0.00156956,
        "meta_mean_motion_ddot": 0,
        "tle_line1": "1 66584U 25268AD  25343.58335648 -.00156956  00000+0 -27167-2 0  9999",
        "tle_line2": "2 66584  43.0003 139.5285 0001915 266.3181 243.8222 15.50647670  4162"
      },
      "geometry": {
        "type": "Point",
        "coordinates": [
          -15.327943614831591,
          -23.262619290164665
        ]
      }
    },
    {
      "type": "Feature",
      "properties": {
        "norad_id": 66585,
        "name": "STARLINK-35963",
        "group": "last-30-days",
        "lat": -24.407229850694666,
        "lon": -13.664424042859723,
        "alt_km": 416.9138037604571,
        "timestamp": "2025-12-09T23:33:22.608981+00:00",
        "meta_object_name": "STARLINK-35963",
        "meta_object_id": "2025-268AE",
        "meta_epoch": "2025-12-09T14:00:01.999872",
        "meta_mean_motion": 15.50580914,
        "meta_eccentricity": 0.00017282,
        "meta_inclination": 43.0007,
        "meta_ra_of_asc_node": 139.5248,
        "meta_arg_of_pericenter": 277.7702,
        "meta_mean_anomaly": 234.3094,
        "meta_ephemeris_type": 0,
        "meta_classification_type": "U",
        "meta_norad_cat_id": 66585,
        "meta_element_set_no": 999,
        "meta_rev_at_epoch": 416,
        "meta_bstar": -0.00078439994,
        "meta_mean_motion_dot": -0.00046093,
        "meta_mean_motion_ddot": 0,
        "tle_line1": "1 66585U 25268AE  25343.58335648 -.00046093  00000+0 -78440-3 0  9991",
        "tle_line2": "2 66585  43.0007 139.5248 0001728 277.7702 234.3094 15.50580914  4162"
      },
      "geometry": {
        "type": "Point",
        "coordinates": [
          -13.664424042859723,
          -24.407229850694666
        ]
      }
    },
    {
      "type": "Feature",
      "properties": {
        "norad_id": 66586,
        "name": "TJS-21",
        "group": "last-30-days",
        "lat": 62.88832447093493,
        "lon": -97.41766700585808,
        "alt_km": 37927.0429893348,
        "timestamp": "2025-12-09T23:33:22.608995+00:00",
        "meta_object_name": "TJS-21",
        "meta_object_id": "2025-269A",
        "meta_epoch": "2025-12-09T05:37:30.492480",
        "meta_mean_motion": 2.0056442,
        "meta_eccentricity": 0.68055916,
        "meta_inclination": 63.2636,
        "meta_ra_of_asc_node": 162.6946,
        "meta_arg_of_pericenter": 269.796,
        "meta_mean_anomaly": 18.652,
        "meta_ephemeris_type": 0,
        "meta_classification_type": "U",
        "meta_norad_cat_id": 66586,
        "meta_element_set_no": 999,
        "meta_rev_at_epoch": 36,
        "meta_bstar": -0.040942106,
        "meta_mean_motion_dot": 1.078e-05,
        "meta_mean_motion_ddot": 0,
        "tle_line1": "1 66586U 25269A   25343.23438070  .00001078  00000+0 -40942-1 0  9995",
        "tle_line2": "2 66586  63.2636 162.6946 6805591 269.7960  18.6520  2.00564420   360"
      },
      "geometry": {
        "type": "Point",
        "coordinates": [
          -97.41766700585808,
          62.88832447093493
        ]
      }
    },
    {
      "type": "Feature",
      "properties": {
        "norad_id": 66587,
        "name": "CZ-3B R/B",
        "group": "last-30-days",
        "lat": 31.01129816509011,
        "lon": -160.96725268387752,
        "alt_km": 38775.6617233718,
        "timestamp": "2025-12-09T23:33:22.609009+00:00",
        "meta_object_name": "CZ-3B R/B",
        "meta_object_id": "2025-269B",
        "meta_epoch": "2025-12-08T20:16:41.020608",
        "meta_mean_motion": 2.02868931,
        "meta_eccentricity": 0.7519771,
        "meta_inclination": 51.3469,
        "meta_ra_of_asc_node": 170.5472,
        "meta_arg_of_pericenter": 228.0184,
        "meta_mean_anomaly": 37.9662,
        "meta_ephemeris_type": 0,
        "meta_classification_type": "U",
        "meta_norad_cat_id": 66587,
        "meta_element_set_no": 999,
        "meta_rev_at_epoch": 37,
        "meta_bstar": 0.001255,
        "meta_mean_motion_dot": 0.00050168,
        "meta_mean_motion_ddot": 4.2215e-07,
        "tle_line1": "1 66587U 25269B   25342.84491922  .00050168  42215-6  12550-2 0  9996",
        "tle_line2": "2 66587  51.3469 170.5472 7519771 228.0184  37.9662  2.02868931   372"
      },
      "geometry": {
        "type": "Point",
        "coordinates": [
          -160.96725268387752,
          31.01129816509011
        ]
      }
    },
    {
      "type": "Feature",
      "properties": {
        "norad_id": 66588,
        "name": "STARLINK-36076",
        "group": "last-30-days",
        "lat": 42.94999982046285,
        "lon": -63.699883894546005,
        "alt_km": 400.21765786004016,
        "timestamp": "2025-12-09T23:33:22.609024+00:00",
        "meta_object_name": "STARLINK-36076",
        "meta_object_id": "2025-270A",
        "meta_epoch": "2025-12-09T14:00:01.999872",
        "meta_mean_motion": 15.55501406,
        "meta_eccentricity": 0.00018556,
        "meta_inclination": 42.9994,
        "meta_ra_of_asc_node": 211.2202,
        "meta_arg_of_pericenter": 256.3699,
        "meta_mean_anomaly": 120.7228,
        "meta_ephemeris_type": 0,
        "meta_classification_type": "U",
        "meta_norad_cat_id": 66588,
        "meta_element_set_no": 999,
        "meta_rev_at_epoch": 389,
        "meta_bstar": -0.031758303,
        "meta_mean_motion_dot": -0.01994044,
        "meta_mean_motion_ddot": 0,
        "tle_line1": "1 66588U 25270A   25343.58335648 -.01994044  00000+0 -31758-1 0  9995",
        "tle_line2": "2 66588  42.9994 211.2202 0001855 256.3699 120.7228 15.55501406  3895"
      },
      "geometry": {
        "type": "Point",
        "coordinates": [
          -63.699883894546005,
          42.94999982046285
        ]
      }
    },
    {
      "type": "Feature",
      "properties": {
        "norad_id": 66589,
        "name": "STARLINK-35447",
        "group": "last-30-days",
        "lat": 42.947625339503546,
        "lon": -58.46160800147297,
        "alt_km": 400.1033834497557,
        "timestamp": "2025-12-09T23:33:22.609035+00:00",
        "meta_object_name": "STARLINK-35447",
        "meta_object_id": "2025-270B",
        "meta_epoch": "2025-12-09T14:00:01.999872",
        "meta_mean_motion": 15.55505694,
        "meta_eccentricity": 0.00016852,
        "meta_inclination": 42.9992,
        "meta_ra_of_asc_node": 211.2105,
        "meta_arg_of_pericenter": 259.9629,
        "meta_mean_anomaly": 120.962,
        "meta_ephemeris_type": 0,
        "meta_classification_type": "U",
        "meta_norad_cat_id": 66589,
        "meta_element_set_no": 999,
        "meta_rev_at_epoch": 400,
        "meta_bstar": -0.031842383,
        "meta_mean_motion_dot": -0.01998951,
        "meta_mean_motion_ddot": 0,
        "tle_line1": "1 66589U 25270B   25343.58335648 -.01998951  00000+0 -31842-1 0  9991",
        "tle_line2": "2 66589  42.9992 211.2105 0001685 259.9629 120.9620 15.55505694  4004"
      },
      "geometry": {
        "type": "Point",
        "coordinates": [
          -58.46160800147297,
          42.947625339503546
        ]
      }
    }
  ]
}